{
  "type": "FeatureCollection",
  "features": [
    {
      "type": "Feature",
      "geometry": {
        "type": "Point",
        "coordinates": [
          107.75855667,
          15.68690167,
          25.1
        ]
      },
      "properties": {
        "name": "Km 1+550",
        "description": "Đã đổ bê tông 1/2 mặt đường (PT)",
        "visited": "1",
        "timestamp": "2026-04-24T02:31:54Z",
        "visible": true,
        "image": "Image/Km1+550-3.jpg,Image/Km1+550-2.jpg,Image/Km1+550-1.jpg"
      }
    },
    {
      "type": "Feature",
      "geometry": {
        "type": "Point",
        "coordinates": [
          107.74902167,
          15.68475833,
          35.9
        ]
      },
      "properties": {
        "name": "Km 2+772",
        "description": "Đã đổ bê tông 1/2 mặt đường (TT)",
        "visited": "1",
        "timestamp": "2026-04-24T02:39:38Z",
        "visible": true,
        "image": "Image/Km2+722-4-Cầu.jpg,Image/Km2+722-3-Cầu.jpg,Image/Km2+722-2-Cầu.jpg,Image/Km2+722-1-Cầu.jpg,Image/Km2+722-Cầu.jpg"
      }
    },
    {
      "type": "Feature",
      "geometry": {
        "type": "Point",
        "coordinates": [
          107.742145,
          15.68097,
          37.2
        ]
      },
      "properties": {
        "name": "Km 3+700",
        "description": "Đã thi công xong khuôn đường",
        "visited": "1",
        "timestamp": "2026-04-24T02:46:01.965Z",
        "visible": true,
        "image": "Image/Km3+700-1.jpg,Image/Km3+700.jpg"
      }
    },
    {
      "type": "Feature",
      "geometry": {
        "type": "Point",
        "coordinates": [
          107.73154833,
          15.676525,
          24.5
        ]
      },
      "properties": {
        "name": "Km 5",
        "description": "Đã đổ bê tông 1/2 mặt đường (TT)",
        "visited": "1",
        "timestamp": "2026-04-24T02:48:51.268Z",
        "visible": true,
        "image": "Image/Km5-3.jpg,Image/Km5-2.jpg,Image/Km5-1.jpg,Image/Km5.jpg"
      }
    },
    {
      "type": "Feature",
      "geometry": {
        "type": "Point",
        "coordinates": [
          107.72809833,
          15.67548833,
          34.9
        ]
      },
      "properties": {
        "name": "Km6+030",
        "description": "Đang chuẩn bị thi công",
        "visited": "1",
        "timestamp": "2026-04-24T02:51:47.542Z",
        "visible": true,
        "image": "Image/3. Cầu Km6+034.jpg"
      }
    },
    {
      "type": "Feature",
      "geometry": {
        "type": "Point",
        "coordinates": [
          107.71299667,
          15.66895167,
          64.3
        ]
      },
      "properties": {
        "name": "Km7+400",
        "description": "Đang chuẩn bị thi công",
        "visited": "1",
        "timestamp": "2026-04-24T02:58:07.500Z",
        "visible": true,
        "image": "Image/4. Km7+400.jpg"
      }
    },
    {
      "type": "Feature",
      "geometry": {
        "type": "Point",
        "coordinates": [
          107.71234667,
          15.66763167,
          62.5
        ]
      },
      "properties": {
        "name": "km 7+700",
        "description": "Đang chuẩn bị thi công",
        "visited": "1",
        "timestamp": "2026-04-24T03:00:52.890Z",
        "visible": true,
        "image": "Image/5. Km7+700.jpg"
      }
    },
    {
      "type": "Feature",
      "geometry": {
        "type": "Point",
        "coordinates": [
          107.66107833,
          15.66180667,
          372.5
        ]
      },
      "properties": {
        "name": "Km15+650",
        "description": "Đang chuẩn bị thi công",
        "visited": "1",
        "timestamp": "2026-04-24T03:37:20.899Z",
        "visible": true,
        "image": "Image/8. Km15+650.jpg"
      }
    },
    {
      "type": "Feature",
      "geometry": {
        "type": "Point",
        "coordinates": [
          107.62326,
          15.65705167,
          244.6
        ]
      },
      "properties": {
        "name": "km25+300",
        "description": "Đang chuẩn bị thi công",
        "visited": "1",
        "timestamp": "2026-04-24T04:04:20Z",
        "visible": true,
        "image": "Image/9. Km25+300.jpg"
      }
    },
    {
      "type": "Feature",
      "geometry": {
        "type": "Point",
        "coordinates": [
          107.61314333,
          15.65558333,
          254.5
        ]
      },
      "properties": {
        "name": "km 28+300",
        "description": "Đang chuẩn bị thi công",
        "visited": "1",
        "timestamp": "2026-04-24T04:26:09.464Z",
        "visible": true,
        "image": "Image/10. Km28+300.jpg"
      }
    },
    {
      "type": "Feature",
      "geometry": {
        "type": "Point",
        "coordinates": [
          107.55962333,
          15.64032,
          323.7
        ]
      },
      "properties": {
        "name": "Km39+900",
        "description": "Đang chuẩn bị thi công",
        "visited": "1",
        "timestamp": "2026-04-24T05:05:21Z",
        "visible": true,
        "image": "Image/13. Km39+900.jpg"
      }
    },
    {
      "type": "Feature",
      "geometry": {
        "type": "Point",
        "coordinates": [
          107.55431833,
          15.63919,
          317.2
        ]
      },
      "properties": {
        "name": "Km 40+277 (cầu)",
        "description": "Đang chuẩn bị thi công",
        "visited": "1",
        "timestamp": "2026-04-24T05:09:47Z",
        "visible": true,
        "image": "Image/14. Km40+297.jpg"
      }
    },
    {
      "type": "Feature",
      "geometry": {
        "type": "Point",
        "coordinates": [
          107.52004667,
          15.61931667,
          406.1
        ]
      },
      "properties": {
        "name": "Km 46+700",
        "description": "Đang chuẩn bị thi công",
        "visited": "1",
        "timestamp": "2026-04-24T07:11:26.879Z",
        "visible": true,
        "image": "Image/1.jpg"
      }
    },
    {
      "type": "Feature",
      "geometry": {
        "type": "Point",
        "coordinates": [
          107.519175,
          15.61928667,
          418.2
        ]
      },
      "properties": {
        "name": "Km 46+900",
        "description": "Đang chuẩn bị thi công",
        "visited": "1",
        "timestamp": "2026-04-24T07:09:17Z",
        "visible": true,
        "image": "Image/1.jpg"
      }
    },
    {
      "type": "Feature",
      "geometry": {
        "type": "Point",
        "coordinates": [
          107.51492833,
          15.619165,
          423
        ]
      },
      "properties": {
        "name": "km47+368",
        "description": "Đang chuẩn bị thi công",
        "visited": "1",
        "timestamp": "2026-04-24T05:34:01.500Z",
        "visible": true,
        "image": "Image/17. Km47+368.jpg"
      }
    },
    {
      "type": "Feature",
      "geometry": {
        "type": "Point",
        "coordinates": [
          107.887845,
          15.80324167,
          -103.4
        ]
      },
      "properties": {
        "name": "Quả Thơm",
        "description": "Speed: 0,75 km/h\nCourse: 261°\nElevation: -103 m\nAccuracy: 6 m",
        "visited": "1",
        "timestamp": "2026-04-24T09:25:15Z",
        "visible": false,
        "image": "Image/1.jpg"
      }
    },
    {
      "type": "Feature",
      "geometry": {
        "type": "Point",
        "coordinates": [
          107.833345,
          15.75945333,
          31.3
        ]
      },
      "properties": {
        "name": "Cà phê Thạch Mỹ",
        "description": "Speed: 2,55 km/h\nCourse: 229°\nElevation: 31 m\nAccuracy: 3 m",
        "visited": "1",
        "timestamp": "2026-05-07T00:32:00.929Z",
        "visible": false,
        "image": "Image/1.jpg"
      }
    },
    {
      "type": "Feature",
      "geometry": {
        "type": "Point",
        "coordinates": [
          107.61480833,
          15.65383167,
          242.4
        ]
      },
      "properties": {
        "name": "Dốc Giáo viên",
        "description": "Speed: 4,7 km/h\nCourse: 311°\nElevation: 242 m\nAccuracy: 7 m",
        "visited": "1",
        "timestamp": "2026-05-07T02:28:14.468Z",
        "visible": false,
        "image": "Image/1.jpg"
      }
    },
    {
      "type": "Feature",
      "geometry": {
        "type": "Point",
        "coordinates": [
          107.49849333,
          15.61514167,
          460.8
        ]
      },
      "properties": {
        "name": "Phòng trọ (nhà khách Quân đội)",
        "description": "Speed: 17,61 km/h\nCourse: 316°\nElevation: 461 m\nAccuracy: 3 m",
        "visited": "1",
        "timestamp": "2026-05-07T03:39:29.689Z",
        "visible": false,
        "image": "Image/1.jpg"
      }
    },
    {
      "type": "Feature",
      "geometry": {
        "type": "Point",
        "coordinates": [
          107.67776,
          15.65776333,
          221.2
        ]
      },
      "properties": {
        "name": "Dốc Thở",
        "description": "Speed: 21,22 km/h\nCourse: 42°\nElevation: 221 m\nAccuracy: 3 m",
        "visited": "1",
        "timestamp": "2026-05-07T08:31:06.105Z",
        "visible": false,
        "image": "Image/1.jpg"
      }
    }
  ]
}
